QIANFAN-17              
1 60395U 24140S   25352.88123430  .00000077  00000+0  10107-3 0  9995
2 60395  88.9777 298.7994 0014315 181.0566 179.0558 13.50977970 68962
QIANFAN-18              
1 60396U 24140T   25352.86065343  .00000070  00000+0  88981-4 0  9991
2 60396  88.9770 298.3346 0014225 163.1149 197.0478 13.50978003 68353
QIANFAN-19              
1 61552U 24185A   25352.88166044  .00000413  00000+0  20873-3 0  9993
2 61552  88.9821  77.2393 0004803 287.9155  72.1508 14.14301879 70536
QIANFAN-20              
1 61553U 24185B   25352.93795809  .00000386  00000+0  21589-3 0  9991
2 61553  88.9819  77.5630 0004597 342.4478  17.6546 14.08850593 70368
QIANFAN-21              
1 61554U 24185C   25352.86998938  .00000539  00000+0  23485-3 0  9999
2 61554  88.9735  76.2633 0009837 354.9107   5.1983 14.22616004 70847
QIANFAN-22              
1 61555U 24185D   25352.92494847  .00000176  00000+0  14066-3 0  9999
2 61555  88.9803  78.5703 0005655 355.0414   5.0701 13.86305276 69798
QIANFAN-23              
1 61556U 24185E   25352.91905506  .00000385  00000+0  18717-3 0  9997
2 61556  88.9812  77.0418 0005680 303.0637  57.0005 14.16298338 70626
QIANFAN-24              
1 61557U 24185F   25352.93777062  .00000552  00000+0  23513-3 0  9990
2 61557  88.9794  76.4345 0007276 277.9205  82.1162 14.23818502 70904
